{"type": "FeatureCollection", "features": [ {"type": "Feature", "properties": {"norad_id": 66747, "name": "W-SERIES 5", "group": "last-30-days", "lat": 63.79189748702536, "lon": 55.560577523111775, "alt_km": 507.5722728937362, "timestamp": "2025-12-25T09:48:51.004983+00:00", "meta": {"OBJECT_NAME": "W-SERIES 5", "OBJECT_ID": "2025-276CK", "EPOCH": "2025-12-25T04:00:01.998720", "MEAN_MOTION": 15.17546382, "ECCENTRICITY": 0.0001441, "INCLINATION": 97.441, "RA_OF_ASC_NODE": 70.7201, "ARG_OF_PERICENTER": 190.7134, "MEAN_ANOMALY": 351.6174, "EPHEMERIS_TYPE": 0, "CLASSIFICATION_TYPE": "U", "NORAD_CAT_ID": 66747, "ELEMENT_SET_NO": 999, "REV_AT_EPOCH": 130, "BSTAR": 0.0021338, "MEAN_MOTION_DOT": 0.00042976, "MEAN_MOTION_DDOT": 0}, "tle": {"line1": "1 66747U 25276CK  25359.16668980  .00042976  00000+0  21338-2 0  9996", "line2": "2 66747  97.4410  70.7201 0001441 190.7134 351.6174 15.17546382  1302"}}, "geometry": {"type": "Point", "coordinates": [55.560577523111775, 63.79189748702536]}}, {"type": "Feature", "properties": {"norad_id": 66748, "name": "TRANSPORTER-15CL", "group": "last-30-days", "lat": 57.755445844376354, "lon": -97.06505344695475, "alt_km": 504.51407068043045, "timestamp": "2025-12-25T09:48:51.004993+00:00", "meta": {"OBJECT_NAME": "TRANSPORTER-15CL", "OBJECT_ID": "2025-276CL", "EPOCH": "2025-12-25T01:22:26.812128", "MEAN_MOTION": 15.18585354, "ECCENTRICITY": 0.000236, "INCLINATION": 97.4401, "RA_OF_ASC_NODE": 70.633, "ARG_OF_PERICENTER": 211.0847, "MEAN_ANOMALY": 149.0248, "EPHEMERIS_TYPE": 0, "CLASSIFICATION_TYPE": "U", "NORAD_CAT_ID": 66748, "ELEMENT_SET_NO": 999, "REV_AT_EPOCH": 399, "BSTAR": 0.00080254, "MEAN_MOTION_DOT": 0.00016552, "MEAN_MOTION_DDOT": 0}, "tle": {"line1": "1 66748U 25276CL  25359.05725477  .00016552  00000+0  80254-3 0  9994", "line2": "2 66748  97.4401  70.6330 0002360 211.0847 149.0248 15.18585354  3995"}}, "geometry": {"type": "Point", "coordinates": [-97.06505344695475, 57.755445844376354]}}, {"type": "Feature", "properties": {"norad_id": 66749, "name": "TRANSPORTER-15CM", "group": "last-30-days", "lat": 82.51857442619144, "lon": -24.754538748262245, "alt_km": 504.6130315867849, "timestamp": "2025-12-25T09:48:51.005003+00:00", "meta": {"OBJECT_NAME": "TRANSPORTER-15CM", "OBJECT_ID": "2025-276CM", "EPOCH": "2025-12-25T03:05:14.291232", "MEAN_MOTION": 15.17908328, "ECCENTRICITY": 0.000207, "INCLINATION": 97.4395, "RA_OF_ASC_NODE": 70.6877, "ARG_OF_PERICENTER": 179.1389, "MEAN_ANOMALY": 180.9849, "EPHEMERIS_TYPE": 0, "CLASSIFICATION_TYPE": "U", "NORAD_CAT_ID": 66749, "ELEMENT_SET_NO": 999, "REV_AT_EPOCH": 400, "BSTAR": 0.00053594, "MEAN_MOTION_DOT": 0.00010809, "MEAN_MOTION_DDOT": 0}, "tle": {"line1": "1 66749U 25276CM  25359.12863763  .00010809  00000+0  53594-3 0  9990", "line2": "2 66749  97.4395  70.6877 0002070 179.1389 180.9849 15.17908328  4000"}}, "geometry": {"type": "Point", "coordinates": [-24.754538748262245, 82.51857442619144]}}, {"type": "Feature", "properties": {"norad_id": 66750, "name": "TRANSPORTER-15CN", "group": "last-30-days", "lat": 69.50975055633586, "lon": -88.53437493221, "alt_km": 503.6686707584495, "timestamp": "2025-12-25T09:48:51.005013+00:00", "meta": {"OBJECT_NAME": "TRANSPORTER-15CN", "OBJECT_ID": "2025-276CN", "EPOCH": "2025-12-25T01:25:31.452384", "MEAN_MOTION": 15.18059382, "ECCENTRICITY": 0.0002298, "INCLINATION": 97.4434, "RA_OF_ASC_NODE": 70.6432, "ARG_OF_PERICENTER": 145.4398, "MEAN_ANOMALY": 214.6985, "EPHEMERIS_TYPE": 0, "CLASSIFICATION_TYPE": "U", "NORAD_CAT_ID": 66750, "ELEMENT_SET_NO": 999, "REV_AT_EPOCH": 399, "BSTAR": 0.00047408, "MEAN_MOTION_DOT": 9.594e-05, "MEAN_MOTION_DDOT": 0}, "tle": {"line1": "1 66750U 25276CN  25359.05939181  .00009594  00000+0  47408-3 0  9998", "line2": "2 66750  97.4434  70.6432 0002298 145.4398 214.6985 15.18059382  3992"}}, "geometry": {"type": "Point", "coordinates": [-88.53437493221, 69.50975055633586]}}, {"type": "Feature", "properties": {"norad_id": 66751, "name": "ICEYE-X58", "group": "last-30-days", "lat": 82.33156073590375, "lon": -5.116410210204221, "alt_km": 505.4356667359607, "timestamp": "2025-12-25T09:48:51.005025+00:00", "meta": {"OBJECT_NAME": "ICEYE-X58", "OBJECT_ID": "2025-276CP", "EPOCH": "2025-12-25T03:05:53.464992", "MEAN_MOTION": 15.17821667, "ECCENTRICITY": 0.0002541, "INCLINATION": 97.4409, "RA_OF_ASC_NODE": 70.6955, "ARG_OF_PERICENTER": 195.1042, "MEAN_ANOMALY": 165.0116, "EPHEMERIS_TYPE": 0, "CLASSIFICATION_TYPE": "U", "NORAD_CAT_ID": 66751, "ELEMENT_SET_NO": 999, "REV_AT_EPOCH": 400, "BSTAR": 0.00026818, "MEAN_MOTION_DOT": 5.359e-05, "MEAN_MOTION_DDOT": 0}, "tle": {"line1": "1 66751U 25276CP  25359.12909103  .00005359  00000+0  26818-3 0  9995", "line2": "2 66751  97.4409  70.6955 0002541 195.1042 165.0116 15.17821667  4004"}}, "geometry": {"type": "Point", "coordinates": [-5.116410210204221, 82.33156073590375]}}, {"type": "Feature", "properties": {"norad_id": 66752, "name": "ICEYE-X59", "group": "last-30-days", "lat": 68.46246642940761, "lon": 51.62594962262696, "alt_km": 507.5600771864147, "timestamp": "2025-12-25T09:48:51.005043+00:00", "meta": {"OBJECT_NAME": "ICEYE-X59", "OBJECT_ID": "2025-276CQ", "EPOCH": "2025-12-25T03:10:41.664288", "MEAN_MOTION": 15.17630568, "ECCENTRICITY": 0.0001957, "INCLINATION": 97.4401, "RA_OF_ASC_NODE": 70.6907, "ARG_OF_PERICENTER": 223.983, "MEAN_ANOMALY": 136.1248, "EPHEMERIS_TYPE": 0, "CLASSIFICATION_TYPE": "U", "NORAD_CAT_ID": 66752, "ELEMENT_SET_NO": 999, "REV_AT_EPOCH": 400, "BSTAR": 0.00047331, "MEAN_MOTION_DOT": 9.461e-05, "MEAN_MOTION_DDOT": 0}, "tle": {"line1": "1 66752U 25276CQ  25359.13242667  .00009461  00000+0  47331-3 0  9993", "line2": "2 66752  97.4401  70.6907 0001957 223.9830 136.1248 15.17630568  4002"}}, "geometry": {"type": "Point", "coordinates": [51.62594962262696, 68.46246642940761]}}, {"type": "Feature", "properties": {"norad_id": 66753, "name": "ICEYE-X60", "group": "last-30-days", "lat": 46.66881326829197, "lon": 62.98635939480474, "alt_km": 510.30666586485586, "timestamp": "2025-12-25T09:48:51.005053+00:00", "meta": {"OBJECT_NAME": "ICEYE-X60", "OBJECT_ID": "2025-276CR", "EPOCH": "2025-12-25T03:16:34.648032", "MEAN_MOTION": 15.17406532, "ECCENTRICITY": 0.0001114, "INCLINATION": 97.4403, "RA_OF_ASC_NODE": 70.6814, "ARG_OF_PERICENTER": 254.5065, "MEAN_ANOMALY": 105.6046, "EPHEMERIS_TYPE": 0, "CLASSIFICATION_TYPE": "U", "NORAD_CAT_ID": 66753, "ELEMENT_SET_NO": 999, "REV_AT_EPOCH": 400, "BSTAR": 0.00064947, "MEAN_MOTION_DOT": 0.00012929, "MEAN_MOTION_DDOT": 0}, "tle": {"line1": "1 66753U 25276CR  25359.13651213  .00012929  00000+0  64947-3 0  9990", "line2": "2 66753  97.4403  70.6814 0001114 254.5065 105.6046 15.17406532  4006"}}, "geometry": {"type": "Point", "coordinates": [62.98635939480474, 46.66881326829197]}}, {"type": "Feature", "properties": {"norad_id": 66754, "name": "ICEYE-X61", "group": "last-30-days", "lat": 81.84984236110992, "lon": -43.18075322060721, "alt_km": 504.80430445478305, "timestamp": "2025-12-25T09:48:51.005063+00:00", "meta": {"OBJECT_NAME": "ICEYE-X61", "OBJECT_ID": "2025-276CS", "EPOCH": "2025-12-25T03:04:32.723328", "MEAN_MOTION": 15.17866182, "ECCENTRICITY": 0.0002488, "INCLINATION": 97.4402, "RA_OF_ASC_NODE": 70.6914, "ARG_OF_PERICENTER": 183.2892, "MEAN_ANOMALY": 176.8326, "EPHEMERIS_TYPE": 0, "CLASSIFICATION_TYPE": "U", "NORAD_CAT_ID": 66754, "ELEMENT_SET_NO": 999, "REV_AT_EPOCH": 400, "BSTAR": 0.00028923, "MEAN_MOTION_DOT": 5.792e-05, "MEAN_MOTION_DDOT": 0}, "tle": {"line1": "1 66754U 25276CS  25359.12815652  .00005792  00000+0  28923-3 0  9993", "line2": "2 66754  97.4402  70.6914 0002488 183.2892 176.8326 15.17866182  4000"}}, "geometry": {"type": "Point", "coordinates": [-43.18075322060721, 81.84984236110992]}}, {"type": "Feature", "properties": {"norad_id": 66755, "name": "ICEYE-X62", "group": "last-30-days", "lat": 67.18016972710139, "lon": 52.86239790038581, "alt_km": 506.95359751238266, "timestamp": "2025-12-25T09:48:51.005075+00:00", "meta": {"OBJECT_NAME": "ICEYE-X62", "OBJECT_ID": "2025-276CT", "EPOCH": "2025-12-25T04:00:01.998720", "MEAN_MOTION": 15.17628979, "ECCENTRICITY": 9.7e-05, "INCLINATION": 97.4404, "RA_OF_ASC_NODE": 70.719, "ARG_OF_PERICENTER": 212.5527, "MEAN_ANOMALY": 333.2587, "EPHEMERIS_TYPE": 0, "CLASSIFICATION_TYPE": "U", "NORAD_CAT_ID": 66755, "ELEMENT_SET_NO": 999, "REV_AT_EPOCH": 501, "BSTAR": 0.0024937, "MEAN_MOTION_DOT": 0.00050406, "MEAN_MOTION_DDOT": 0}, "tle": {"line1": "1 66755U 25276CT  25359.16668980  .00050406  00000+0  24937-2 0  9990", "line2": "2 66755  97.4404  70.7190 0000970 212.5527 333.2587 15.17628979  5015"}}, "geometry": {"type": "Point", "coordinates": [52.86239790038581, 67.18016972710139]}}, {"type": "Feature", "properties": {"norad_id": 66756, "name": "TRANSPORTER-15CU", "group": "last-30-days", "lat": 77.47765764788329, "lon": -72.9800222998185, "alt_km": 503.9265432899292, "timestamp": "2025-12-25T09:48:51.005085+00:00", "meta": {"OBJECT_NAME": "TRANSPORTER-15CU", "OBJECT_ID": "2025-276CU", "EPOCH": "2025-12-25T01:27:52.500384", "MEAN_MOTION": 15.17973126, "ECCENTRICITY": 0.0001722, "INCLINATION": 97.4408, "RA_OF_ASC_NODE": 70.6323, "ARG_OF_PERICENTER": 151.342, "MEAN_ANOMALY": 208.7909, "EPHEMERIS_TYPE": 0, "CLASSIFICATION_TYPE": "U", "NORAD_CAT_ID": 66756, "ELEMENT_SET_NO": 999, "REV_AT_EPOCH": 399, "BSTAR": 0.00048546, "MEAN_MOTION_DOT": 9.802e-05, "MEAN_MOTION_DDOT": 0}, "tle": {"line1": "1 66756U 25276CU  25359.06102431  .00009802  00000+0  48546-3 0  9991", "line2": "2 66756  97.4408  70.6323 0001722 151.3420 208.7909 15.17973126  3991"}}, "geometry": {"type": "Point", "coordinates": [-72.9800222998185, 77.47765764788329]}}]}